FENGYUN 1C DEB          
1 29860U 99025FE  17345.80949991  .00000339  00000-0  37896-3 0  9990
2 29860  98.6395 281.5619 0245949 178.9263 237.7482 13.64883157541636
